KUIPER-00274            
1 67792U 26030AE  26166.10834925  .00008958  00000+0  12028-2 0  9999
2 67792  51.9007 132.3292 0001444 134.7468 225.3612 14.79924357 19746
KUIPER-00275            
1 67793U 26030AF  26166.50002315 -.00055697  00000+0 -54216-2 0  9993
2 67793  51.8964 110.9912 0010217  54.9071 297.8001 14.92221983  4661
KUIPER-00276            
1 67794U 26030AG  26166.50002315 -.00039042  00000+0 -32906-2 0  9992
2 67794  51.8945 116.1514 0018308  24.2282  43.4241 14.97581756  5899
KUIPER-00279            
1 67795U 26030AH  26166.50002315 -.00026656  00000+0 -11880-2 0  9998
2 67795  51.8852 107.9960 0009013  39.5853  14.5756 15.20606651  5514
CREW DRAGON 12          
1 67796U 26031A   26166.51237794  .00007736  00000+0  14717-3 0  9991
2 67796  51.6337 308.3821 0004849 188.9923 171.0979 15.49243888571269
STARLINK-36800          
1 67797U 26032A   26166.48964388  .00022252  00000+0  69000-3 0  9990
2 67797  97.2839 354.3512 0001769  84.9116 275.2329 15.33423568 19955
STARLINK-36798          
1 67798U 26032B   26166.47059985  .00011845  00000+0  36860-3 0  9992
2 67798  97.2836 354.2234 0002267 104.3911 255.7583 15.33448600 19945
STARLINK-36804          
1 67799U 26032C   26166.48691483  .00018152  00000+0  56329-3 0  9999
2 67799  97.2843 354.2032 0001586  88.7555 271.3869 15.33441075 19942
STARLINK-36354          
1 67800U 26032D   26166.47603792  .00021742  00000+0  67382-3 0  9997
2 67800  97.2840 354.2196 0001733  76.2129 283.9307 15.33445168 19949
STARLINK-36773          
1 67801U 26032E   26166.48419538  .00006075  00000+0  19038-3 0  9999
2 67801  97.2848 354.2066 0001460  90.0886 270.0524 15.33438824 19944
STARLINK-36739          
1 67802U 26032F   26166.52497648  .00011505  00000+0  35808-3 0  9990
2 67802  97.2841 354.3049 0002334 106.0661 254.0838 15.33450665 19958
STARLINK-36768          
1 67803U 26032G   26166.47875924  .00021470  00000+0  66552-3 0  9994
2 67803  97.2843 354.2153 0001761  76.2198 283.9240 15.33442711 19942
STARLINK-36792          
1 67804U 26032H   26166.48147578  .00018756  00000+0  58182-3 0  9996
2 67804  97.2844 354.2108 0001611  86.9750 273.1677 15.33446894 19941
STARLINK-36782          
1 67805U 26032J   26166.50866584  .00026859  00000+0  83119-3 0  9996
2 67805  97.2848 354.3289 0002096  95.8781 264.2700 15.33449981 19957
STARLINK-36389          
1 67806U 26032K   26166.53041615  .00014093  00000+0  43791-3 0  9999
2 67806  97.2838 354.2969 0002348 107.1291 253.0209 15.33453199 19950
STARLINK-36382          
1 67807U 26032L   26166.52769486  .00017141  00000+0  53187-3 0  9999
2 67807  97.2842 354.3002 0002077 107.6577 252.4893 15.33455837 19959
STARLINK-36811          
1 67808U 26032M   26166.51138632  .00023111  00000+0  71596-3 0  9990
2 67808  97.2849 354.3256 0002084  99.5092 260.6386 15.33445896 19959
STARLINK-36795          
1 67809U 26032N   26166.47331356  .00015711  00000+0  48777-3 0  9996
2 67809  97.2851 354.2215 0001585  93.6579 266.4845 15.33458194 19945
STARLINK-36807          
1 67810U 26032P   26166.51412140  .00016015  00000+0  49719-3 0  9999
2 67810  97.2850 354.3211 0001878  98.8309 261.3146 15.33454332 19955
STARLINK-36733          
1 67811U 26032Q   26166.50050631  .00025150  00000+0  77870-3 0  9991
2 67811  97.2845 354.3400 0001486  98.6941 261.4470 15.33447288 19958
STARLINK-36377          
1 67812U 26032R   26166.49778485  .00026869  00000+0  83135-3 0  9993
2 67812  97.2843 354.3399 0001451  86.4185 273.7224 15.33455844 19951
STARLINK-36732          
1 67813U 26032S   26166.50322744  .00022065  00000+0  68384-3 0  9992
2 67813  97.2843 354.3335 0001744  95.2467 264.8975 15.33442160 19959
STARLINK-36767          
1 67814U 26032T   26166.53312826  .00016775  00000+0  52048-3 0  9997
2 67814  97.2850 354.2944 0001569  76.7534 283.3884 15.33463001 19959
STARLINK-36797          
1 67815U 26032U   26166.51953863  .00022122  00000+0  68534-3 0  9998
2 67815  97.2843 354.3100 0001953  96.0662 264.0803 15.33454068 19951
STARLINK-36343          
1 67816U 26032V   26166.49506550  .00006890  00000+0  21561-3 0  9996
2 67816  97.2843 354.3460 0001637  85.2038 274.9392 15.33436662 19950
STARLINK-36756          
1 67817U 26032W   26166.50596365  .00024367  00000+0  75538-3 0  9994
2 67817  97.2850 354.3331 0001918  98.0910 262.0551 15.33413906 19949
STARLINK-36346          
1 67818U 26032X   26166.49235022  .00009222  00000+0  28754-3 0  9994
2 67818  97.2842 354.3503 0001682  89.9483 270.1953 15.33454670 19954
STARLINK-36788          
1 67819U 26032Y   26166.52226222  .00021574  00000+0  66867-3 0  9992
2 67819  97.2843 354.3095 0001737  85.0680 275.0761 15.33444096 19951
STARLINK-36353          
1 67820U 26032Z   26166.51682329  .00022833  00000+0  70739-3 0  9999
2 67820  97.2847 354.3179 0001943  98.1323 262.0140 15.33445670 19954
STARLINK-36644          
1 67821U 26033A   26166.43414457  .00012372  00000+0  45825-3 0  9992
2 67821  43.0030  74.9695 0000753 272.2790  87.7976 15.27587585 19625
