OBJECT_NAME,OBJECT_ID,EPOCH,MEAN_MOTION,ECCENTRICITY,INCLINATION,RA_OF_ASC_NODE,ARG_OF_PERICENTER,MEAN_ANOMALY,EPHEMERIS_TYPE,CLASSIFICATION_TYPE,NORAD_CAT_ID,ELEMENT_SET_NO,REV_AT_EPOCH,BSTAR,MEAN_MOTION_DOT,MEAN_MOTION_DDOT
KUIPER-00274,2026-030AE,2026-06-15T02:36:01.375200,14.79924357,.00014443,51.9007,132.3292,134.7468,225.3612,0,U,67792,999,1974,.12028064E-2,.8958E-4,0
KUIPER-00275,2026-030AF,2026-06-15T12:00:02.000160,14.92221983,.0010217,51.8964,110.9912,54.9071,297.8001,0,U,67793,999,466,-.54216E-2,-.55697E-3,0
KUIPER-00276,2026-030AG,2026-06-15T12:00:02.000160,14.97581756,.0018308,51.8945,116.1514,24.2282,43.4241,0,U,67794,999,589,-.32906E-2,-.39042E-3,0
KUIPER-00279,2026-030AH,2026-06-15T12:00:02.000160,15.20606651,.0009013,51.8852,107.9960,39.5853,14.5756,0,U,67795,999,551,-.1188E-2,-.26656E-3,0
CREW DRAGON 12,2026-031A,2026-06-15T12:17:49.454016,15.49243888,.0004849,51.6337,308.3821,188.9923,171.0979,0,U,67796,999,57126,.14717E-3,.7736E-4,0
STARLINK-36800,2026-032A,2026-06-15T11:45:05.231232,15.33423568,.0001769,97.2839,354.3512,84.9116,275.2329,0,U,67797,999,1995,.69E-3,.22252E-3,0
STARLINK-36798,2026-032B,2026-06-15T11:17:39.827040,15.33448600,.0002267,97.2836,354.2234,104.3911,255.7583,0,U,67798,999,1994,.3686E-3,.11845E-3,0
STARLINK-36804,2026-032C,2026-06-15T11:41:09.441312,15.33441075,.0001586,97.2843,354.2032,88.7555,271.3869,0,U,67799,999,1994,.56329E-3,.18152E-3,0
STARLINK-36354,2026-032D,2026-06-15T11:25:29.676288,15.33445168,.0001733,97.2840,354.2196,76.2129,283.9307,0,U,67800,999,1994,.67382E-3,.21742E-3,0
STARLINK-36773,2026-032E,2026-06-15T11:37:14.480832,15.33438824,.000146,97.2848,354.2066,90.0886,270.0524,0,U,67801,999,1994,.19038E-3,.6075E-4,0
STARLINK-36739,2026-032F,2026-06-15T12:35:57.967872,15.33450665,.0002334,97.2841,354.3049,106.0661,254.0838,0,U,67802,999,1995,.35808E-3,.11505E-3,0
STARLINK-36768,2026-032G,2026-06-15T11:29:24.798336,15.33442711,.0001761,97.2843,354.2153,76.2198,283.9240,0,U,67803,999,1994,.66552E-3,.2147E-3,0
STARLINK-36792,2026-032H,2026-06-15T11:33:19.507392,15.33446894,.0001611,97.2844,354.2108,86.9750,273.1677,0,U,67804,999,1994,.58182E-3,.18756E-3,0
STARLINK-36782,2026-032J,2026-06-15T12:12:28.728576,15.33449981,.0002096,97.2848,354.3289,95.8781,264.2700,0,U,67805,999,1995,.83119E-3,.26859E-3,0
STARLINK-36389,2026-032K,2026-06-15T12:43:47.955360,15.33453199,.0002348,97.2838,354.2969,107.1291,253.0209,0,U,67806,999,1995,.43791E-3,.14093E-3,0
STARLINK-36382,2026-032L,2026-06-15T12:39:52.835904,15.33455837,.0002077,97.2842,354.3002,107.6577,252.4893,0,U,67807,999,1995,.53187E-3,.17141E-3,0
STARLINK-36811,2026-032M,2026-06-15T12:16:23.778048,15.33445896,.0002084,97.2849,354.3256,99.5092,260.6386,0,U,67808,999,1995,.71596E-3,.23111E-3,0
STARLINK-36795,2026-032N,2026-06-15T11:21:34.291584,15.33458194,.0001585,97.2851,354.2215,93.6579,266.4845,0,U,67809,999,1994,.48777E-3,.15711E-3,0
STARLINK-36807,2026-032P,2026-06-15T12:20:20.088960,15.33454332,.0001878,97.2850,354.3211,98.8309,261.3146,0,U,67810,999,1995,.49719E-3,.16015E-3,0
STARLINK-36733,2026-032Q,2026-06-15T12:00:43.745184,15.33447288,.0001486,97.2845,354.3400,98.6941,261.4470,0,U,67811,999,1995,.7787E-3,.2515E-3,0
STARLINK-36377,2026-032R,2026-06-15T11:56:48.611040,15.33455844,.0001451,97.2843,354.3399,86.4185,273.7224,0,U,67812,999,1995,.83135E-3,.26869E-3,0
STARLINK-36732,2026-032S,2026-06-15T12:04:38.850816,15.33442160,.0001744,97.2843,354.3335,95.2467,264.8975,0,U,67813,999,1995,.68384E-3,.22065E-3,0
STARLINK-36767,2026-032T,2026-06-15T12:47:42.281664,15.33463001,.0001569,97.2850,354.2944,76.7534,283.3884,0,U,67814,999,1995,.52048E-3,.16775E-3,0
STARLINK-36797,2026-032U,2026-06-15T12:28:08.137632,15.33454068,.0001953,97.2843,354.3100,96.0662,264.0803,0,U,67815,999,1995,.68534E-3,.22122E-3,0
STARLINK-36343,2026-032V,2026-06-15T11:52:53.659200,15.33436662,.0001637,97.2843,354.3460,85.2038,274.9392,0,U,67816,999,1995,.21561E-3,.689E-4,0
STARLINK-36756,2026-032W,2026-06-15T12:08:35.259360,15.33413906,.0001918,97.2850,354.3331,98.0910,262.0551,0,U,67817,999,1994,.75538E-3,.24367E-3,0
STARLINK-36346,2026-032X,2026-06-15T11:48:59.059008,15.33454670,.0001682,97.2842,354.3503,89.9483,270.1953,0,U,67818,999,1995,.28754E-3,.9222E-4,0
STARLINK-36788,2026-032Y,2026-06-15T12:32:03.455808,15.33444096,.0001737,97.2843,354.3095,85.0680,275.0761,0,U,67819,999,1995,.66867E-3,.21574E-3,0
STARLINK-36353,2026-032Z,2026-06-15T12:24:13.532256,15.33445670,.0001943,97.2847,354.3179,98.1323,262.0140,0,U,67820,999,1995,.70739E-3,.22833E-3,0
STARLINK-36644,2026-033A,2026-06-15T10:25:10.090848,15.27587585,.0000753,43.0030,74.9695,272.2790,87.7976,0,U,67821,999,1962,.45825E-3,.12372E-3,0
